start=new Date('2022-01-18T00:00:00.000Z').valueOf();
sats=[{"MEAN_MOTION_DDOT":"0.0000000000000","MEAN_MOTION_DOT":"-0.00002027","LAUNCH_DATE":"2020-03-18","EPHEMERIS_TYPE":"0","MEAN_ELEMENT_THEORY":"SGP4","OBJECT_ID":"2020-019E","TLE_LINE1":"1 45364U 20019E   22017.68934269 -.00002027  00000-0 -11731-3 0  9992","REV_AT_EPOCH":"10224","TLE_LINE2":"2 45364  53.0550  84.2563 0001401  74.1500 285.9643 15.06381897102247","GP_ID":"194085270","PERIOD":"95.593","ELEMENT_SET_NO":"999","INCLINATION":"53.0550","SITE":"AFETR","REF_FRAME":"TEME","MEAN_ANOMALY":"285.9643","RCS_SIZE":"LARGE","CLASSIFICATION_TYPE":"U","APOAPSIS":"548.239","COUNTRY_CODE":"US","OBJECT_NAME":"STARLINK-1313","RA_OF_ASC_NODE":"84.2563","ARG_OF_PERICENTER":"74.1500","CENTER_NAME":"EARTH","ECCENTRICITY":"0.00014010","MEAN_MOTION":"15.06381897","FILE":"3276075","TIME_SYSTEM":"UTC","DECAY_DATE":null,"EPOCH":"2022-01-17T16:32:39.208416","NORAD_CAT_ID":"45364","SEMIMAJOR_AXIS":"6925.404","OBJECT_TYPE":"PAYLOAD","BSTAR":"-0.00011731000000","PERIAPSIS":"546.299"},{"COUNTRY_CODE":"US","OBJECT_NAME":"STARLINK-1317","REF_FRAME":"TEME","RCS_SIZE":"LARGE","MEAN_ANOMALY":"272.2700","CLASSIFICATION_TYPE":"U","APOAPSIS":"550.550","TLE_LINE2":"2 45365  53.0023  94.5965 0001183  87.8423 272.2700 15.05579054102061","GP_ID":"194085520","PERIOD":"95.644","ELEMENT_SET_NO":"999","INCLINATION":"53.0023","SITE":"AFETR","MEAN_MOTION_DDOT":"0.0000000000000","MEAN_MOTION_DOT":"-0.00003262","LAUNCH_DATE":"2020-03-18","MEAN_ELEMENT_THEORY":"SGP4","EPHEMERIS_TYPE":"0","OBJECT_ID":"2020-019F","TLE_LINE1":"1 45365U 20019F   22017.61571292 -.00003262  00000-0 -20482-3 0  9994","REV_AT_EPOCH":"10206","SEMIMAJOR_AXIS":"6927.866","OBJECT_TYPE":"PAYLOAD","BSTAR":"-0.00020482000000","PERIAPSIS":"548.911","DECAY_DATE":null,"NORAD_CAT_ID":"45365","EPOCH":"2022-01-17T14:46:37.596288","MEAN_MOTION":"15.05579054","FILE":"3276075","TIME_SYSTEM":"UTC","ARG_OF_PERICENTER":"87.8423","RA_OF_ASC_NODE":"94.5965","CENTER_NAME":"EARTH","ECCENTRICITY":"0.00011830"},{"PERIAPSIS":"546.309","OBJECT_TYPE":"PAYLOAD","SEMIMAJOR_AXIS":"6925.361","BSTAR":"-0.00020037000000","EPOCH":"2022-01-17T13:54:44.496288","NORAD_CAT_ID":"45366","DECAY_DATE":null,"TIME_SYSTEM":"UTC","MEAN_MOTION":"15.06395837","FILE":"3275754","CENTER_NAME":"EARTH","RA_OF_ASC_NODE":"114.7376","ARG_OF_PERICENTER":"91.9127","ECCENTRICITY":"0.00013250","OBJECT_NAME":"STARLINK-1262","COUNTRY_CODE":"US","APOAPSIS":"548.144","REF_FRAME":"TEME","CLASSIFICATION_TYPE":"U","RCS_SIZE":"LARGE","MEAN_ANOMALY":"268.2013","PERIOD":"95.592","INCLINATION":"53.0541","ELEMENT_SET_NO":"999","SITE":"AFETR","GP_ID":"194053918","TLE_LINE2":"2 45366  53.0541 114.7376 0001325  91.9127 268.2013 15.06395837101824","TLE_LINE1":"1 45366U 20019G   22017.57968167 -.00003264  00000-0 -20037-3 0  9999","REV_AT_EPOCH":"10182","MEAN_MOTION_DOT":"-0.00003264","MEAN_MOTION_DDOT":"0.0000000000000","OBJECT_ID":"2020-019G","LAUNCH_DATE":"2020-03-18","EPHEMERIS_TYPE":"0","MEAN_ELEMENT_THEORY":"SGP4"},{"APOAPSIS":"548.232","REF_FRAME":"TEME","RCS_SIZE":"LARGE","MEAN_ANOMALY":"261.1345","CLASSIFICATION_TYPE":"U","OBJECT_NAME":"STARLINK-1273","COUNTRY_CODE":"US","REV_AT_EPOCH":"10183","TLE_LINE1":"1 45367U 20019H   22017.66813359 -.00003047  00000-0 -18581-3 0  9992","MEAN_MOTION_DDOT":"0.0000000000000","MEAN_MOTION_DOT":"-0.00003047","LAUNCH_DATE":"2020-03-18","EPHEMERIS_TYPE":"0","MEAN_ELEMENT_THEORY":"SGP4","OBJECT_ID":"2020-019H","ELEMENT_SET_NO":"999","PERIOD":"95.593","INCLINATION":"53.0550","SITE":"AFETR","TLE_LINE2":"2 45367  53.0550 114.3594 0001432  98.9806 261.1345 15.06391297101830","GP_ID":"194086520","NORAD_CAT_ID":"45367","EPOCH":"2022-01-17T16:02:06.742176","DECAY_DATE":null,"PERIAPSIS":"546.249","SEMIMAJOR_AXIS":"6925.375","OBJECT_TYPE":"PAYLOAD","BSTAR":"-0.00018581000000","RA_OF_ASC_NODE":"114.3594","ARG_OF_PERICENTER":"98.9806","CENTER_NAME":"EARTH","ECCENTRICITY":"0.00014320","TIME_SYSTEM":"UTC","MEAN_MOTION":"15.06391297","FILE":"3276075"},{"DECAY_DATE":null,"EPOCH":"2022-01-17T15:19:40.230912","NORAD_CAT_ID":"45368","SEMIMAJOR_AXIS":"6925.403","OBJECT_TYPE":"PAYLOAD","BSTAR":"-0.00011639000000","PERIAPSIS":"546.175","ARG_OF_PERICENTER":"120.3514","RA_OF_ASC_NODE":"114.4737","CENTER_NAME":"EARTH","ECCENTRICITY":"0.00015780","MEAN_MOTION":"15.06382317","FILE":"3276075","TIME_SYSTEM":"UTC","REF_FRAME":"TEME","MEAN_ANOMALY":"239.7631","RCS_SIZE":"LARGE","CLASSIFICATION_TYPE":"U","APOAPSIS":"548.361","COUNTRY_CODE":"US","OBJECT_NAME":"STARLINK-1276","MEAN_MOTION_DDOT":"0.0000000000000","MEAN_MOTION_DOT":"-0.00002014","EPHEMERIS_TYPE":"0","LAUNCH_DATE":"2020-03-18","MEAN_ELEMENT_THEORY":"SGP4","OBJECT_ID":"2020-019J","TLE_LINE1":"1 45368U 20019J   22017.63866008 -.00002014  00000-0 -11639-3 0  9999","REV_AT_EPOCH":"10183","TLE_LINE2":"2 45368  53.0541 114.4737 0001578 120.3514 239.7631 15.06382317101830","GP_ID":"194085771","PERIOD":"95.593","ELEMENT_SET_NO":"999","INCLINATION":"53.0541","SITE":"AFETR"},{"COUNTRY_CODE":"US","OBJECT_NAME":"STARLINK-1277","REF_FRAME":"TEME","CLASSIFICATION_TYPE":"U","MEAN_ANOMALY":"284.4652","RCS_SIZE":"LARGE","APOAPSIS":"548.356","GP_ID":"194086021","TLE_LINE2":"2 45369  53.0556 114.4931 0001557  75.6510 284.4652 15.06378917101839","INCLINATION":"53.0556","PERIOD":"95.593","ELEMENT_SET_NO":"999","SITE":"AFETR","MEAN_MOTION_DOT":"-0.00006253","MEAN_MOTION_DDOT":"0.0000000000000","OBJECT_ID":"2020-019K","EPHEMERIS_TYPE":"0","LAUNCH_DATE":"2020-03-18","MEAN_ELEMENT_THEORY":"SGP4","REV_AT_EPOCH":"10183","TLE_LINE1":"1 45369U 20019K   22017.63770900 -.00006253  00000-0 -40146-3 0  9999","OBJECT_TYPE":"PAYLOAD","SEMIMAJOR_AXIS":"6925.413","BSTAR":"-0.00040146000000","PERIAPSIS":"546.200","DECAY_DATE":null,"EPOCH":"2022-01-17T15:18:18.057600","NORAD_CAT_ID":"45369","MEAN_MOTION":"15.06378917","FILE":"3276075","TIME_SYSTEM":"UTC","CENTER_NAME":"EARTH","RA_OF_ASC_NODE":"114.4931","ARG_OF_PERICENTER":"75.6510","ECCENTRICITY":"0.00015570"},{"GP_ID":"194086271","TLE_LINE2":"2 45370  53.0564 114.2240 0001429  88.1747 271.9406 15.06386371101842","SITE":"AFETR","PERIOD":"95.593","ELEMENT_SET_NO":"999","INCLINATION":"53.0564","OBJECT_ID":"2020-019L","EPHEMERIS_TYPE":"0","LAUNCH_DATE":"2020-03-18","MEAN_ELEMENT_THEORY":"SGP4","MEAN_MOTION_DOT":"-0.00003526","MEAN_MOTION_DDOT":"0.0000000000000","TLE_LINE1":"1 45370U 20019L   22017.69394894 -.00003526  00000-0 -21798-3 0  9993","REV_AT_EPOCH":"10184","COUNTRY_CODE":"US","OBJECT_NAME":"STARLINK-1281","CLASSIFICATION_TYPE":"U","RCS_SIZE":"LARGE","MEAN_ANOMALY":"271.9406","REF_FRAME":"TEME","APOAPSIS":"548.245","FILE":"3276075","MEAN_MOTION":"15.06386371","TIME_SYSTEM":"UTC","ECCENTRICITY":"0.00014290","CENTER_NAME":"EARTH","RA_OF_ASC_NODE":"114.2240","ARG_OF_PERICENTER":"88.1747","BSTAR":"-0.00021798000000","OBJECT_TYPE":"PAYLOAD","SEMIMAJOR_AXIS":"6925.390","PERIAPSIS":"546.266","DECAY_DATE":null,"NORAD_CAT_ID":"45370","EPOCH":"2022-01-17T16:39:17.188416"},{"RCS_SIZE":"LARGE","MEAN_ANOMALY":"262.4844","CLASSIFICATION_TYPE":"U","REF_FRAME":"TEME","APOAPSIS":"548.177","COUNTRY_CODE":"US","OBJECT_NAME":"STARLINK-1287","LAUNCH_DATE":"2020-03-18","EPHEMERIS_TYPE":"0","MEAN_ELEMENT_THEORY":"SGP4","OBJECT_ID":"2020-019M","MEAN_MOTION_DDOT":"0.0000000000000","MEAN_MOTION_DOT":"-0.00002294","TLE_LINE1":"1 45371U 20019M   22017.65707791 -.00002294  00000-0 -13518-3 0  9996","REV_AT_EPOCH":"10183","TLE_LINE2":"2 45371  53.0548 114.3915 0001341  97.6297 262.4844 15.06388758101834","GP_ID":"194087021","SITE":"AFETR","PERIOD":"95.593","INCLINATION":"53.0548","ELEMENT_SET_NO":"999","DECAY_DATE":null,"NORAD_CAT_ID":"45371","EPOCH":"2022-01-17T15:46:11.531424","BSTAR":"-0.00013518000000","SEMIMAJOR_AXIS":"6925.383","OBJECT_TYPE":"PAYLOAD","PERIAPSIS":"546.319","ECCENTRICITY":"0.00013410","RA_OF_ASC_NODE":"114.3915","ARG_OF_PERICENTER":"97.6297","CENTER_NAME":"EARTH","FILE":"3276075","MEAN_MOTION":"15.06388758","TIME_SYSTEM":"UTC"},{"TLE_LINE1":"1 45372U 20019N   22017.67182628 -.00002179  00000-0 -12750-3 0  9994","REV_AT_EPOCH":"10183","OBJECT_ID":"2020-019N","LAUNCH_DATE":"2020-03-18","EPHEMERIS_TYPE":"0","MEAN_ELEMENT_THEORY":"SGP4","MEAN_MOTION_DOT":"-0.00002179","MEAN_MOTION_DDOT":"0.0000000000000","SITE":"AFETR","PERIOD":"95.593","ELEMENT_SET_NO":"999","INCLINATION":"53.0550","GP_ID":"194085271","TLE_LINE2":"2 45372  53.0550 114.3402 0001187  88.2967 271.8158 15.06388534101831","APOAPSIS":"548.071","CLASSIFICATION_TYPE":"U","MEAN_ANOMALY":"271.8158","RCS_SIZE":"LARGE","REF_FRAME":"TEME","OBJECT_NAME":"STARLINK-1288","COUNTRY_CODE":"US","ECCENTRICITY":"0.00011870","CENTER_NAME":"EARTH","ARG_OF_PERICENTER":"88.2967","RA_OF_ASC_NODE":"114.3402","TIME_SYSTEM":"UTC","FILE":"3276075","MEAN_MOTION":"15.06388534","EPOCH":"2022-01-17T16:07:25.790592","NORAD_CAT_ID":"45372","DECAY_DATE":null,"PERIAPSIS":"546.427","BSTAR":"-0.00012750000000","OBJECT_TYPE":"PAYLOAD","SEMIMAJOR_AXIS":"6925.384"},{"DECAY_DATE":null,"EPOCH":"2022-01-17T17:16:25.340736","NORAD_CAT_ID":"45373","BSTAR":"-0.00004479100000","OBJECT_TYPE":"PAYLOAD","SEMIMAJOR_AXIS":"6925.373","PERIAPSIS":"546.255","ECCENTRICITY":"0.00014190","CENTER_NAME":"EARTH","RA_OF_ASC_NODE":"114.1156","ARG_OF_PERICENTER":"98.8823","FILE":"3276075","MEAN_MOTION":"15.06391981","TIME_SYSTEM":"UTC","CLASSIFICATION_TYPE":"U","MEAN_ANOMALY":"261.2327","RCS_SIZE":"LARGE","REF_FRAME":"TEME","APOAPSIS":"548.221","COUNTRY_CODE":"US","OBJECT_NAME":"STARLINK-1295","OBJECT_ID":"2020-019P","LAUNCH_DATE":"2020-03-18","MEAN_ELEMENT_THEORY":"SGP4","EPHEMERIS_TYPE":"0","MEAN_MOTION_DOT":"-0.00000948","MEAN_MOTION_DDOT":"0.0000000000000","TLE_LINE1":"1 45373U 20019P   22017.71973774 -.00000948  00000-0 -44791-4 0  9993","REV_AT_EPOCH":"10184","GP_ID":"194085521","TLE_LINE2":"2 45373  53.0533 114.1156 0001419  98.8823 261.2327 15.06391981101845","SITE":"AFETR","INCLINATION":"53.0533","PERIOD":"95.593","ELEMENT_SET_NO":"999"}];
